[
    {
        "OBJECT_NAME": "STARLINK-2708",
        "OBJECT_ID": "2021-044Z",
        "EPOCH": "2023-11-15T03:06:49.863456",
        "MEAN_MOTION": 15.06397738,
        "ECCENTRICITY": 0.00011,
        "INCLINATION": 53.0544,
        "RA_OF_ASC_NODE": 307.4864,
        "ARG_OF_PERICENTER": 89.1676,
        "MEAN_ANOMALY": 270.9439,
        "EPHEMERIS_TYPE": 0,
        "CLASSIFICATION_TYPE": "U",
        "NORAD_CAT_ID": 48661,
        "ELEMENT_SET_NO": 999,
        "REV_AT_EPOCH": 13730,
        "BSTAR": -0.00012621,
        "MEAN_MOTION_DOT": -2.161e-5,
        "MEAN_MOTION_DDOT": 0
    },
    {
        "OBJECT_NAME": "STARLINK-2726",
        "OBJECT_ID": "2021-044AA",
        "EPOCH": "2023-11-15T03:01:31.677312",
        "MEAN_MOTION": 15.06407701,
        "ECCENTRICITY": 0.0001514,
        "INCLINATION": 53.0545,
        "RA_OF_ASC_NODE": 307.5022,
        "ARG_OF_PERICENTER": 68.1787,
        "MEAN_ANOMALY": 291.9363,
        "EPHEMERIS_TYPE": 0,
        "CLASSIFICATION_TYPE": "U",
        "NORAD_CAT_ID": 48662,
        "ELEMENT_SET_NO": 999,
        "REV_AT_EPOCH": 13724,
        "BSTAR": 7.8259e-5,
        "MEAN_MOTION_DOT": 8.85e-6,
        "MEAN_MOTION_DDOT": 0
    },
    {
        "OBJECT_NAME": "STARLINK-2667",
        "OBJECT_ID": "2021-044AB",
        "EPOCH": "2023-11-15T02:56:13.426368",
        "MEAN_MOTION": 15.06393256,
        "ECCENTRICITY": 0.0001405,
        "INCLINATION": 53.0564,
        "RA_OF_ASC_NODE": 307.5191,
        "ARG_OF_PERICENTER": 102.7211,
        "MEAN_ANOMALY": 257.3935,
        "EPHEMERIS_TYPE": 0,
        "CLASSIFICATION_TYPE": "U",
        "NORAD_CAT_ID": 48663,
        "ELEMENT_SET_NO": 999,
        "REV_AT_EPOCH": 13724,
        "BSTAR": 4.6097e-5,
        "MEAN_MOTION_DOT": 4.05e-6,
        "MEAN_MOTION_DDOT": 0
    },
    {
        "OBJECT_NAME": "STARLINK-2709",
        "OBJECT_ID": "2021-044AC",
        "EPOCH": "2023-11-15T02:50:55.140864",
        "MEAN_MOTION": 15.0639429,
        "ECCENTRICITY": 0.0001646,
        "INCLINATION": 53.0554,
        "RA_OF_ASC_NODE": 307.5318,
        "ARG_OF_PERICENTER": 112.2171,
        "MEAN_ANOMALY": 247.8992,
        "EPHEMERIS_TYPE": 0,
        "CLASSIFICATION_TYPE": "U",
        "NORAD_CAT_ID": 48664,
        "ELEMENT_SET_NO": 999,
        "REV_AT_EPOCH": 13730,
        "BSTAR": 0.00018204,
        "MEAN_MOTION_DOT": 2.431e-5,
        "MEAN_MOTION_DDOT": 0
    },
    {
        "OBJECT_NAME": "STARLINK-2653",
        "OBJECT_ID": "2021-044AD",
        "EPOCH": "2023-11-15T03:10:46.747200",
        "MEAN_MOTION": 15.06394078,
        "ECCENTRICITY": 0.0001427,
        "INCLINATION": 53.0544,
        "RA_OF_ASC_NODE": 307.4734,
        "ARG_OF_PERICENTER": 101.3012,
        "MEAN_ANOMALY": 258.8138,
        "EPHEMERIS_TYPE": 0,
        "CLASSIFICATION_TYPE": "U",
        "NORAD_CAT_ID": 48665,
        "ELEMENT_SET_NO": 999,
        "REV_AT_EPOCH": 13730,
        "BSTAR": -9.9306e-5,
        "MEAN_MOTION_DOT": -1.76e-5,
        "MEAN_MOTION_DDOT": 0
    },
    {
        "OBJECT_NAME": "STARLINK-2666",
        "OBJECT_ID": "2021-044AE",
        "EPOCH": "2023-11-15T03:28:09.685056",
        "MEAN_MOTION": 15.06388104,
        "ECCENTRICITY": 0.0001509,
        "INCLINATION": 53.0551,
        "RA_OF_ASC_NODE": 307.8941,
        "ARG_OF_PERICENTER": 86.4552,
        "MEAN_ANOMALY": 273.661,
        "EPHEMERIS_TYPE": 0,
        "CLASSIFICATION_TYPE": "U",
        "NORAD_CAT_ID": 48666,
        "ELEMENT_SET_NO": 999,
        "REV_AT_EPOCH": 13729,
        "BSTAR": -8.4291e-5,
        "MEAN_MOTION_DOT": -1.536e-5,
        "MEAN_MOTION_DDOT": 0
    },
    {
        "OBJECT_NAME": "STARLINK-2735",
        "OBJECT_ID": "2021-044AF",
        "EPOCH": "2023-11-15T02:45:36.507168",
        "MEAN_MOTION": 15.06396701,
        "ECCENTRICITY": 0.0001489,
        "INCLINATION": 53.0558,
        "RA_OF_ASC_NODE": 307.5516,
        "ARG_OF_PERICENTER": 95.2646,
        "MEAN_ANOMALY": 264.8513,
        "EPHEMERIS_TYPE": 0,
        "CLASSIFICATION_TYPE": "U",
        "NORAD_CAT_ID": 48667,
        "ELEMENT_SET_NO": 999,
        "REV_AT_EPOCH": 13724,
        "BSTAR": 0.00011932,
        "MEAN_MOTION_DOT": 1.496e-5,
        "MEAN_MOTION_DDOT": 0
    },
    {
        "OBJECT_NAME": "STARLINK-2738",
        "OBJECT_ID": "2021-044AG",
        "EPOCH": "2023-11-14T17:07:03.342432",
        "MEAN_MOTION": 15.06397614,
        "ECCENTRICITY": 0.0001674,
        "INCLINATION": 53.0538,
        "RA_OF_ASC_NODE": 309.3553,
        "ARG_OF_PERICENTER": 93.2911,
        "MEAN_ANOMALY": 266.827,
        "EPHEMERIS_TYPE": 0,
        "CLASSIFICATION_TYPE": "U",
        "NORAD_CAT_ID": 48668,
        "ELEMENT_SET_NO": 999,
        "REV_AT_EPOCH": 13634,
        "BSTAR": 0.00031078,
        "MEAN_MOTION_DOT": 4.35e-5,
        "MEAN_MOTION_DDOT": 0
    },
    {
        "OBJECT_NAME": "STARLINK-2707",
        "OBJECT_ID": "2021-044AH",
        "EPOCH": "2023-11-14T17:01:45.098400",
        "MEAN_MOTION": 15.06403563,
        "ECCENTRICITY": 0.000169,
        "INCLINATION": 53.0543,
        "RA_OF_ASC_NODE": 309.3718,
        "ARG_OF_PERICENTER": 95.1127,
        "MEAN_ANOMALY": 265.0055,
        "EPHEMERIS_TYPE": 0,
        "CLASSIFICATION_TYPE": "U",
        "NORAD_CAT_ID": 48669,
        "ELEMENT_SET_NO": 999,
        "REV_AT_EPOCH": 13633,
        "BSTAR": 0.00022396,
        "MEAN_MOTION_DOT": 3.056e-5,
        "MEAN_MOTION_DDOT": 0
    },
    {
        "OBJECT_NAME": "STARLINK-2763",
        "OBJECT_ID": "2021-044AJ",
        "EPOCH": "2023-11-14T16:56:26.564064",
        "MEAN_MOTION": 15.06405045,
        "ECCENTRICITY": 0.0001574,
        "INCLINATION": 53.0544,
        "RA_OF_ASC_NODE": 309.3892,
        "ARG_OF_PERICENTER": 86.1255,
        "MEAN_ANOMALY": 273.9914,
        "EPHEMERIS_TYPE": 0,
        "CLASSIFICATION_TYPE": "U",
        "NORAD_CAT_ID": 48670,
        "ELEMENT_SET_NO": 999,
        "REV_AT_EPOCH": 13633,
        "BSTAR": 8.6425e-5,
        "MEAN_MOTION_DOT": 1.006e-5,
        "MEAN_MOTION_DDOT": 0
    },
    {
        "OBJECT_NAME": "STARLINK-2745",
        "OBJECT_ID": "2021-044AK",
        "EPOCH": "2023-11-15T03:58:33.786048",
        "MEAN_MOTION": 15.0639148,
        "ECCENTRICITY": 0.0001678,
        "INCLINATION": 53.0549,
        "RA_OF_ASC_NODE": 307.3136,
        "ARG_OF_PERICENTER": 91.4284,
        "MEAN_ANOMALY": 268.6897,
        "EPHEMERIS_TYPE": 0,
        "CLASSIFICATION_TYPE": "U",
        "NORAD_CAT_ID": 48671,
        "ELEMENT_SET_NO": 999,
        "REV_AT_EPOCH": 13724,
        "BSTAR": 3.4199e-5,
        "MEAN_MOTION_DOT": 2.28e-6,
        "MEAN_MOTION_DDOT": 0
    },
    {
        "OBJECT_NAME": "STARLINK-2705",
        "OBJECT_ID": "2021-044AL",
        "EPOCH": "2023-11-15T03:54:36.804672",
        "MEAN_MOTION": 15.06395768,
        "ECCENTRICITY": 0.0001474,
        "INCLINATION": 53.0549,
        "RA_OF_ASC_NODE": 307.3356,
        "ARG_OF_PERICENTER": 84.6348,
        "MEAN_ANOMALY": 275.481,
        "EPHEMERIS_TYPE": 0,
        "CLASSIFICATION_TYPE": "U",
        "NORAD_CAT_ID": 48672,
        "ELEMENT_SET_NO": 999,
        "REV_AT_EPOCH": 13730,
        "BSTAR": -0.00018486,
        "MEAN_MOTION_DOT": -3.034e-5,
        "MEAN_MOTION_DDOT": 0
    },
    {
        "OBJECT_NAME": "STARLINK-2711",
        "OBJECT_ID": "2021-044AM",
        "EPOCH": "2023-11-15T03:49:18.630624",
        "MEAN_MOTION": 15.06388856,
        "ECCENTRICITY": 0.0002242,
        "INCLINATION": 53.0555,
        "RA_OF_ASC_NODE": 307.3512,
        "ARG_OF_PERICENTER": 81.729,
        "MEAN_ANOMALY": 278.3953,
        "EPHEMERIS_TYPE": 0,
        "CLASSIFICATION_TYPE": "U",
        "NORAD_CAT_ID": 48673,
        "ELEMENT_SET_NO": 999,
        "REV_AT_EPOCH": 13730,
        "BSTAR": -1.1676e-5,
        "MEAN_MOTION_DOT": -4.56e-6,
        "MEAN_MOTION_DDOT": 0
    }
]
