STARLINK-2708           
1 48661U 21044Z   23319.12974379 -.00002161  00000+0 -12621-3 0  9992
2 48661  53.0544 307.4864 0001100  89.1676 270.9439 15.06397738137306
STARLINK-2726           
1 48662U 21044AA  23319.12606108  .00000885  00000+0  78259-4 0  9994
2 48662  53.0545 307.5022 0001514  68.1787 291.9363 15.06407701137248
STARLINK-2667           
1 48663U 21044AB  23319.12237762  .00000405  00000+0  46097-4 0  9994
2 48663  53.0564 307.5191 0001405 102.7211 257.3935 15.06393256137243
STARLINK-2709           
1 48664U 21044AC  23319.11869376  .00002431  00000+0  18204-3 0  9995
2 48664  53.0554 307.5318 0001646 112.2171 247.8992 15.06394290137305
STARLINK-2653           
1 48665U 21044AD  23319.13248550 -.00001760  00000+0 -99306-4 0  9992
2 48665  53.0544 307.4734 0001427 101.3012 258.8138 15.06394078137304
STARLINK-2666           
1 48666U 21044AE  23319.14455654 -.00001536  00000+0 -84291-4 0  9997
2 48666  53.0551 307.8941 0001509  86.4552 273.6610 15.06388104137291
STARLINK-2735           
1 48667U 21044AF  23319.11500587  .00001496  00000+0  11932-3 0  9995
2 48667  53.0558 307.5516 0001489  95.2646 264.8513 15.06396701137244
STARLINK-2738           
1 48668U 21044AG  23318.71323313  .00004350  00000+0  31078-3 0  9996
2 48668  53.0538 309.3553 0001674  93.2911 266.8270 15.06397614136349
STARLINK-2707           
1 48669U 21044AH  23318.70954975  .00003056  00000+0  22396-3 0  9995
2 48669  53.0543 309.3718 0001690  95.1127 265.0055 15.06403563136339
STARLINK-2763           
1 48670U 21044AJ  23318.70586301  .00001006  00000+0  86425-4 0  9998
2 48670  53.0544 309.3892 0001574  86.1255 273.9914 15.06405045136337
STARLINK-2745           
1 48671U 21044AK  23319.16566882  .00000228  00000+0  34199-4 0  9998
2 48671  53.0549 307.3136 0001678  91.4284 268.6897 15.06391480137247
STARLINK-2705           
1 48672U 21044AL  23319.16292598 -.00003034  00000+0 -18486-3 0  9999
2 48672  53.0549 307.3356 0001474  84.6348 275.4810 15.06395768137302
STARLINK-2711           
1 48673U 21044AM  23319.15924341 -.00000456  00000+0 -11676-4 0  9997
2 48673  53.0555 307.3512 0002242  81.7290 278.3953 15.06388856137302
